TIANMU-1 08             
1 57400U 23101B   26066.00237819  .00000346  00000+0  14775-4 0  9993
2 57400  97.2717 118.7901 0006380 134.2174 225.9592 15.29204229146020
STARLINK-32182          
1 60319U 24133U   26068.05834168  .00000255  00000+0  20727-4 0  9992
2 60319  53.1600 299.9979 0001080  85.6382 274.4742 15.30193796 91544
