[{"OBJECT_NAME":"TIANMU-1 08","OBJECT_ID":"2023-101B","EPOCH":"2026-03-07T00:03:25.475616","MEAN_MOTION":15.29204229,"ECCENTRICITY":0.00063808,"INCLINATION":97.2717,"RA_OF_ASC_NODE":118.7901,"ARG_OF_PERICENTER":134.2174,"MEAN_ANOMALY":225.9592,"EPHEMERIS_TYPE":0,"CLASSIFICATION_TYPE":"U","NORAD_CAT_ID":57400,"ELEMENT_SET_NO":999,"REV_AT_EPOCH":14602,"BSTAR":1.4774513e-5,"MEAN_MOTION_DOT":3.46e-6,"MEAN_MOTION_DDOT":0},{"OBJECT_NAME":"STARLINK-32182","OBJECT_ID":"2024-133U","EPOCH":"2026-03-09T01:24:00.721152","MEAN_MOTION":15.30193796,"ECCENTRICITY":0.000108,"INCLINATION":53.16,"RA_OF_ASC_NODE":299.9979,"ARG_OF_PERICENTER":85.6382,"MEAN_ANOMALY":274.4742,"EPHEMERIS_TYPE":0,"CLASSIFICATION_TYPE":"U","NORAD_CAT_ID":60319,"ELEMENT_SET_NO":999,"REV_AT_EPOCH":9154,"BSTAR":2.0727103e-5,"MEAN_MOTION_DOT":2.55e-6,"MEAN_MOTION_DDOT":0}]
